{
  "norad_id": 63230,
  "name": "ION SCV-017",
  "history": [
    {
      "epoch": "2026-03-28T15:42:51.784992",
      "apogee_km": 499.4020341412179,
      "perigee_km": 469.6291022393816,
      "latitude_deg": 7.842307250990287,
      "longitude_deg": -154.14246111991815,
      "semi_major_axis_km": 6862.6525681902995,
      "eccentricity": 0.0021692,
      "inclination_deg": 97.4001,
      "raan_deg": 343.5275,
      "arg_perigee_deg": 339.2138,
      "mean_anomaly_deg": 20.8217,
      "mean_motion_rev_day": 15.27090386
    },
    {
      "epoch": "2026-03-29T04:17:43.191168",
      "apogee_km": 499.319507656156,
      "perigee_km": 469.6564973453469,
      "latitude_deg": 68.89655491843759,
      "longitude_deg": -103.81867647985928,
      "semi_major_axis_km": 6862.625002500751,
      "eccentricity": 0.0021612,
      "inclination_deg": 97.4,
      "raan_deg": 344.0473,
      "arg_perigee_deg": 337.2503,
      "mean_anomaly_deg": 22.7776,
      "mean_motion_rev_day": 15.27099587
    }
  ]
}